BEIDOU 3 (C01)          
1 36287U 10001A   21349.53139863 -.00000266  00000+0  00000+0 0  9998
2 36287   1.7751  44.8251 0001488  78.8033 292.4848  1.00275180 43674
BEIDOU 5 (C06)          
1 36828U 10036A   21347.09957495 -.00000025  00000+0  00000+0 0  9998
2 36828  54.1819 177.9429 0023722 174.1443 230.0324  1.00252020 41715
BEIDOU 6 (C04)          
1 37210U 10057A   21349.39176211 -.00000097  00000+0  00000+0 0  9990
2 37210   0.8426  46.3090 0006933 161.0966 177.9261  1.00270015 40796
BEIDOU 7 (C07)          
1 37256U 10068A   21349.44616976 -.00000219  00000+0  00000+0 0  9991
2 37256  50.5439 291.8478 0015639 189.8060 229.0308  1.00251337 40309
BEIDOU 8 (C08)          
1 37384U 11013A   21349.47485753 -.00000199  00000+0  00000+0 0  9991
2 37384  60.0291  56.0914 0019285 191.7304 111.6454  1.00258612 39177
BEIDOU 9 (C09)          
1 37763U 11038A   21349.21248096  .00000022  00000+0  00000+0 0  9992
2 37763  54.4676 180.3919 0086191 225.3051 210.5752  1.00272782 38152
BEIDOU 10 (C10)         
1 37948U 11073A   21349.55722980 -.00000169  00000+0  00000+0 0  9995
2 37948  50.6496 291.4811 0078941 219.4170 227.1150  1.00294069 36910
BEIDOU 11 (C05)         
1 38091U 12008A   21349.58686948  .00000071  00000+0  00000+0 0  9991
2 38091   1.9513  71.2279 0004760 271.7820  11.4350  1.00273871 35982
BEIDOU 12 (C11)         
1 38250U 12018A   21349.57043928 -.00000088  00000+0  00000+0 0  9992
2 38250  56.7342 359.6339 0024919 251.0398 154.0558  1.86234277 65669
BEIDOU 13 (C12)         
1 38251U 12018B   21349.57612214 -.00000089  00000+0  00000+0 0  9994
2 38251  56.6536 358.9707 0015761 254.3022 198.8980  1.86234029 65660
BEIDOU 15 (C14)         
1 38775U 12050B   21349.14196887 -.00000002  00000+0  00000+0 0  9992
2 38775  55.2983 117.8934 0011494 327.1742  31.9572  1.86231262 63021
BEIDOU 16 (C02)         
1 38953U 12059A   21349.63906294 -.00000159  00000+0  00000+0 0  9997
2 38953   1.5374  84.5260 0010885 275.4705  38.5333  1.00268480 33557
BEIDOU 17 (C31)         
1 40549U 15019A   21349.63235243 -.00000193  00000+0  00000+0 0  9997
2 40549  52.2008 314.8898 0036753 191.4183 261.8207  1.00282218 24593
BEIDOU 18 (C57)         
1 40748U 15037A   21348.23174304 -.00000091  00000+0  00000+0 0  9990
2 40748  55.9129 357.9932 0003131 321.1308 220.4396  1.86233344 43467
BEIDOU 19 (C58)         
1 40749U 15037B   21348.44350465 -.00000091  00000+0  00000+0 0  9998
2 40749  55.9159 357.9768 0006179 295.8126 163.0151  1.86232072 43466
BEIDOU 20 (C18)         
1 40938U 15053A   21349.27549506 -.00000158  00000+0  00000+0 0  9998
2 40938  51.7874 277.9911 0043468 195.4684 164.7462  1.00288069 22868
BEIDOU IGSO-6 (C13)     
1 41434U 16021A   21349.47206759 -.00000182  00000+0  00000+0 0  9995
2 41434  57.8313  54.7489 0045170 214.6820  80.8544  1.00277616 20980
BEIDOU-2 G7 (C03)       
1 41586U 16037A   21349.57236847 -.00000339  00000+0  00000+0 0  9996
2 41586   1.5732  66.1010 0007658 359.9262 335.0313  1.00270824 20295
BEIDOU-3 M1 (C19)       
1 43001U 17069A   21349.33557802 -.00000004  00000+0  00000+0 0  9996
2 43001  55.4521 117.8629 0007528 285.3644 359.6793  1.86231580 27960
BEIDOU-3 M2 (C20)       
1 43002U 17069B   21349.27209994 -.00000004  00000+0  00000+0 0  9996
2 43002  55.4515 117.8997 0005786 316.8115 328.8985  1.86231284 27950
BEIDOU-3 M3 (C27)       
1 43107U 18003A   21349.19378551 -.00000092  00000+0  00000+0 0  9995
2 43107  55.3593 358.9603 0003346  41.1835 357.9863  1.86232396 26727
BEIDOU-3 M4 (C28)       
1 43108U 18003B   21348.14721447 -.00000093  00000+0  00000+0 0  9997
2 43108  55.3538 358.9864 0004296 249.9765 212.4468  1.86230876 26706
BEIDOU-3 M5 (C21)       
1 43207U 18018A   21348.97807085  .00000000  00000+0  00000+0 0  9994
2 43207  55.4120 117.9946 0003809 355.2349   4.7239  1.86231479 26108
BEIDOU-3 M6 (C22)       
1 43208U 18018B   21348.50783937  .00000004  00000+0  00000+0 0  9997
2 43208  55.4101 118.0152 0005486 299.9436  59.9662  1.86231550 26093
BEIDOU-3 M7 (C29)       
1 43245U 18029A   21348.45801697 -.00000092  00000+0  00000+0 0  9996
2 43245  55.2830 356.7649 0001493 271.9385 264.2451  1.86232468 25242
BEIDOU-3 M8 (C30)       
1 43246U 18029B   21348.26396178 -.00000092  00000+0  10000-3 0  9994
2 43246  55.2794 356.8032 0004034 333.8876 118.5733  1.86232819 25239
BEIDOU IGSO-7 (C16)     
1 43539U 18057A   21349.46924307 -.00000026  00000+0  00000+0 0  9996
2 43539  55.0629 177.3375 0040074 220.6619 328.5158  1.00266343 12669
BEIDOU-3 M9 (C23)       
1 43581U 18062A   21349.27660329  .00000020  00000+0  00000+0 0  9992
2 43581  54.3343 238.3962 0003825 304.3227 317.5484  1.86231864 22990
BEIDOU-3 M10 (C24)      
1 43582U 18062B   21349.61070198  .00000025  00000+0  00000+0 0  9995
2 43582  54.3343 238.3741 0006620   3.9860 213.4722  1.86232333 23001
BEIDOU-3 M11 (C25)      
1 43602U 18067A   21349.61549608  .00000029  00000+0  00000+0 0  9994
2 43602  54.4131 236.9723 0007743   5.3335 257.1096  1.86231506 22496
BEIDOU-3 M12 (C26)      
1 43603U 18067B   21349.21396084  .00000023  00000+0  00000+0 0  9993
2 43603  54.4102 236.9532 0004880 356.9475 266.6998  1.86231432 22508
BEIDOU-3 M13 (C32)      
1 43622U 18072A   21349.31299367 -.00000005  00000+0  00000+0 0  9998
2 43622  55.3772 117.5454 0004458 274.8141  85.0838  1.86231474 22027
BEIDOU-3 M14 (C33)      
1 43623U 18072B   21349.60946674 -.00000008  00000+0  00000+0 0  9994
2 43623  55.3793 117.5275 0002314 318.6077 330.2952  1.86231475 22029
BEIDOU-3 M15 (C34)      
1 43647U 18078A   21349.50111646 -.00000093  00000+0  10000-3 0  9997
2 43647  55.1759 356.9045 0006301 346.7852 124.7656  1.86232669 21530
BEIDOU-3 M16 (C35)      
1 43648U 18078B   21349.55394392 -.00000093  00000+0  00000+0 0  9999
2 43648  55.1721 356.9098 0003930 351.5169  63.5830  1.86232185 21557
BEIDOU-3 G1 (C59)       
1 43683U 18085A   21349.45953074 -.00000261  00000+0  00000+0 0  9990
2 43683   0.8553 199.6779 0004832  46.7569 143.3489  1.00275243 11568
BEIDOU-3 M17 (C36)      
1 43706U 18093A   21349.08750027  .00000018  00000+0  00000+0 0  9996
2 43706  54.4148 238.2744 0008530 284.3249  75.6550  1.86232040 20901
BEIDOU-3 M18 (C37)      
1 43707U 18093B   21349.33897828  .00000021  00000+0  00000+0 0  9990
2 43707  54.4158 238.2559 0008398 310.0442 309.5814  1.86232178 20893
BEIDOU-3 IGSO-1 (C38)   
1 44204U 19023A   21349.59855674 -.00000239  00000+0  00000+0 0  9990
2 44204  56.2871  54.9542 0023045 192.0825 171.5340  1.00266067  9878
BEIDOU-2 G8             
1 44231U 19027A   21349.53218360 -.00000233  00000+0  00000+0 0  9997
2 44231   0.4471  58.4000 0006419 152.7033 209.3274  1.00266943  9580
BEIDOU-3 IGSO-2 (C39)   
1 44337U 19035A   21348.94980052 -.00000032  00000+0  00000+0 0  9998
2 44337  55.1006 173.3733 0020799 176.7809 193.5901  1.00256851  9209
BEIDOU-3 M23 (C45)      
1 44542U 19061A   21349.41144941  .00000022  00000+0  10000-3 0  9990
2 44542  54.6407 238.3686 0009187 341.7779 278.9236  1.86231524 15157
BEIDOU-3 M24 (C46)      
1 44543U 19061B   21349.54244145  .00000024  00000+0  10000-3 0  9994
2 44543  54.6402 238.3346 0006334 334.4817 285.1136  1.86231838 15156
BEIDOU-3 IGSO-3         
1 44709U 19073A   21349.66343456 -.00000214  00000+0  00000+0 0  9996
2 44709  57.5612 298.2884 0018572 186.8644 317.3258  1.00262612  7964
BEIDOU-3 M21            
1 44793U 19078A   21348.97292286 -.00000093  00000+0  10000-3 0  9991
2 44793  55.0233 356.9681 0005877 354.3070  77.3050  1.86232235 14014
BEIDOU-3 M22            
1 44794U 19078B   21349.15149679 -.00000093  00000+0  00000+0 0  9995
2 44794  54.9994 356.9567 0003940 344.2872 118.3656  1.86232743 14019
BEIDOU-3 M19            
1 44864U 19090A   21349.13346569 -.00000003  00000+0  00000+0 0  9993
2 44864  55.3117 117.7727 0014788 262.8988  22.2287  1.86231735 13590
BEIDOU-3 M20            
1 44865U 19090B   21349.37606282 -.00000005  00000+0  00000+0 0  9993
2 44865  55.3149 117.7945 0012970 278.7199 258.9514  1.86231659 13573
BEIDOU-3 G2             
1 45344U 20017A   21349.44758184 -.00000127  00000+0  00000+0 0  9999
2 45344   2.2203 343.5959 0001156 210.9315 130.9651  1.00271213  6764
BEIDOU-3 G3             
1 45807U 20040A   21349.09478377 -.00000338  00000+0  00000+0 0  9997
2 45807   1.8652 300.4088 0009430 353.2173 295.0289  1.00271677  5585
